COMMENT,ORIGINATOR,NORAD_CAT_ID,OBJECT_NAME,OBJECT_TYPE,CLASSIFICATION_TYPE,INTLDES,EPOCH,EPOCH_MICROSECONDS,MEAN_MOTION,ECCENTRICITY,INCLINATION,RA_OF_ASC_NODE,ARG_OF_PERICENTER,MEAN_ANOMALY,EPHEMERIS_TYPE,ELEMENT_SET_NO,REV_AT_EPOCH,BSTAR,MEAN_MOTION_DOT,MEAN_MOTION_DDOT,FILE,TLE_LINE0,TLE_LINE1,TLE_LINE2,OBJECT_ID,OBJECT_NUMBER,SEMIMAJOR_AXIS,PERIOD,APOGEE,PERIGEE,DECAYED
"GENERATED VIA SPACETRACK.ORG API","18 SPCS","56796","STARLINK-6049","PAYLOAD","U","23078AF","2023-10-31 20:39:27","102240","14.98339887","0.0003027","70","352.4904","268.4131","91.6681","0","999","2388","-0.00013712","-0.00001729","0","4063660","0 STARLINK-6049","1 56796U 23078AF  23304.86073035 -.00001729  00000-0 -13712-3 0  9995","2 56796  70.0000 352.4904 0003027 268.4131  91.6681 14.98339887 23888","2023-078AF","56796","6950.162","96.106","574.131","569.924","0"
"GENERATED VIA SPACETRACK.ORG API","18 SPCS","49153","STARLINK-3072","PAYLOAD","U","21082Z","2023-10-31 21:35:01","866624","14.98326305","0.0002871","70","262.2887","268.3617","91.7213","0","999","11816","0.000085386","0.00000926","0","4063536","0 STARLINK-3072","1 49153U 21082Z   23304.89932716  .00000926  00000-0  85386-4 0  9993","2 49153  70.0000 262.2887 0002871 268.3617  91.7213 14.98326305118168","2021-082Z","49153","6950.204","96.107","574.065","570.074","0"
"GENERATED VIA SPACETRACK.ORG API","18 SPCS","49153","STARLINK-3072","PAYLOAD","U","21082Z","2023-10-31 21:35:01","866624","14.98326305","0.0002871","70","262.2887","268.3617","91.7213","0","999","11938","0.000085386","0.00000926","0","4063660","0 STARLINK-3072","1 49153U 21082Z   23304.89932716  .00000926  00000-0  85386-4 0  9993","2 49153  70.0000 262.2887 0002871 268.3617  91.7213 14.98326305119383","2021-082Z","49153","6950.204","96.107","574.065","570.074","0"
"GENERATED VIA SPACETRACK.ORG API","18 SPCS","49177","STARLINK-3103","PAYLOAD","U","21082AZ","2023-10-31 22:11:05","223264","14.98335405","0.0002699","70","262.2325","266.1922","93.8928","0","999","11937","0.00027397","0.00003178","0","4063660","0 STARLINK-3103","1 49177U 21082AZ  23304.92436601  .00003178  00000-0  27397-3 0  9994","2 49177  70.0000 262.2325 0002699 266.1922  93.8928 14.98335405119375","2021-082AZ","49177","6950.176","96.107","573.917","570.165","0"
"GENERATED VIA SPACETRACK.ORG API","18 SPCS","55932","STARLINK-5848","PAYLOAD","U","23037U","2023-10-31 22:14:04","122240","14.98459875","0.0002289","70","272.0284","251.3915","108.6996","0","999","3569","0.0014457","0.00017257","0","4063660","0 STARLINK-5848","1 55932U 23037U   23304.92643660  .00017257  00000-0  14457-2 0  9992","2 55932  70.0000 272.0284 0002289 251.3915 108.6996 14.98459875 35697","2023-037U","55932","6949.791","96.099","573.247","570.065","0"
"GENERATED VIA SPACETRACK.ORG API","18 SPCS","55745","STARLINK-5565","PAYLOAD","U","23028E","2023-10-31 22:37:58","219680","14.9832637","0.0002604","70","252.3731","263.3703","96.7159","0","999","3725","0.00015012","0.00001698","0","4063660","0 STARLINK-5565","1 55745U 23028E   23304.94303495  .00001698  00000-0  15012-3 0  9996","2 55745  70.0000 252.3731 0002604 263.3703  96.7159 14.98326370 37251","2023-028E","55745","6950.204","96.107","573.879","570.259","0"
"GENERATED VIA SPACETRACK.ORG API","18 SPCS","55660","STARLINK-5467","PAYLOAD","U","23021AJ","2023-11-01 01:07:04","425600","14.98334542","0.000291","70","172.1122","268.6941","91.3885","0","999","4021","0.000073651","0.00000786","0","4064233","0 STARLINK-5467","1 55660U 23021AJ  23305.04657900  .00000786  00000-0  73651-4 0  9991","2 55660  70.0000 172.1122 0002910 268.6941  91.3885 14.98334542 40219","2023-021AJ","55660","6950.179","96.107","574.066","570.021","0"
"GENERATED VIA SPACETRACK.ORG API","18 SPCS","55678","STARLINK-5314","PAYLOAD","U","23021BC","2023-11-01 01:30:50","411808","14.98337595","0.0002835","70","171.7655","269.8841","90.1994","0","999","4022","-0.0000019703","-0.00000116","0","4064587","0 STARLINK-5314","1 55678U 23021BC  23305.06308347 -.00000116  00000-0 -19703-5 0  9998","2 55678  70.0000 171.7655 0002835 269.8841  90.1994 14.98337595 40222","2023-021BC","55678","6950.169","96.107","574.005","570.064","0"
"GENERATED VIA SPACETRACK.ORG API","18 SPCS","55410","STARLINK-5633","PAYLOAD","U","23014V","2023-11-01 03:17:38","527872","14.98345829","0.0003097","70","91.5319","271.0739","89.0066","0","999","4281","-0.00027407","-0.00003363","0","4063705","0 STARLINK-5633","1 55410U 23014V   23305.13725148 -.00003363  00000-0 -27407-3 0  9999","2 55410  70.0000  91.5319 0003097 271.0739  89.0066 14.98345829 42817","2023-014V","55410","6950.144","96.106","574.161","569.856","0"
"GENERATED VIA SPACETRACK.ORG API","18 SPCS","49149","STARLINK-3053","PAYLOAD","U","21082V","2023-11-01 03:54:13","518144","14.98332008","0.0002732","70","301.6217","270.1538","89.9308","0","999","11843","0.00017386","0.00001982","0","4063679","0 STARLINK-3053","1 49149U 21082V   23305.16265646  .00001982  00000-0  17386-3 0  9997","2 49149  70.0000 301.6217 0002732 270.1538  89.9308 14.98332008118438","2021-082V","49149","6950.187","96.107","573.950","570.153","0"
"GENERATED VIA SPACETRACK.ORG API","18 SPCS","55750","STARLINK-5573","PAYLOAD","U","23028K","2023-11-01 04:20:25","762272","14.98333571","0.0002562","70","251.5954","262.2956","97.7912","0","999","3729","-0.000052165","-0.00000715","0","4063822","0 STARLINK-5573","1 55750U 23028K   23305.18085373 -.00000715  00000-0 -52165-4 0  9993","2 55750  70.0000 251.5954 0002562 262.2956  97.7912 14.98333571 37299","2023-028K","55750","6950.182","96.107","573.827","570.266","0"
"GENERATED VIA SPACETRACK.ORG API","18 SPCS","49175","STARLINK-3087","PAYLOAD","U","21082AX","2023-11-01 04:23:56","204160","14.98332311","0.0002313","70","281.5818","266.0054","94.0841","0","999","11772","-0.000032001","-0.00000475","0","4064064","0 STARLINK-3087","1 49175U 21082AX  23305.18328940 -.00000475  00000-0 -32001-4 0  9995","2 49175  70.0000 281.5818 0002313 266.0054  94.0841 14.98332311117729","2021-082AX","49175","6950.186","96.107","573.658","570.443","0"
"GENERATED VIA SPACETRACK.ORG API","18 SPCS","49168","STARLINK-3101","PAYLOAD","U","21082AQ","2023-11-01 05:24:00","570240","14.98336197","0.0002797","70","281.4562","268.5192","91.5646","0","999","11893","0.00014647","0.00001655","0","4063827","0 STARLINK-3101","1 49168U 21082AQ  23305.22500660  .00001655  00000-0  14647-3 0  9997","2 49168  70.0000 281.4562 0002797 268.5192  91.5646 14.98336197118937","2021-082AQ","49168","6950.174","96.107","573.983","570.095","0"
"GENERATED VIA SPACETRACK.ORG API","18 SPCS","55750","STARLINK-5573","PAYLOAD","U","23028K","2023-11-01 05:56:33","270720","14.98338569","0.0002612","70","251.4273","262.3135","97.7727","0","999","3730","0.00009211","0.00001006","0","4064346","0 STARLINK-5573","1 55750U 23028K   23305.24760730  .00001006  00000-0  92110-4 0  9993","2 55750  70.0000 251.4273 0002612 262.3135  97.7727 14.98338569 37306","2023-028K","55750","6950.166","96.106","573.847","570.216","0"
"GENERATED VIA SPACETRACK.ORG API","18 SPCS","55756","STARLINK-5614","PAYLOAD","U","23028R","2023-11-01 06:44:36","676320","14.98324875","0.000298","70","251.142","270.9209","89.1608","0","999","3731","0.00025934","0.00003002","0","4064888","0 STARLINK-5614","1 55756U 23028R   23305.28098005  .00003002  00000-0  25934-3 0  9999","2 55756  70.0000 251.1420 0002980 270.9209  89.1608 14.98324875 37317","2023-028R","55756","6950.209","96.107","574.145","570.003","0"
"GENERATED VIA SPACETRACK.ORG API","18 SPCS","55958","STARLINK-5928","PAYLOAD","U","23037AW","2023-11-01 07:02:58","892352","14.9833469","0.0002704","70","271.3071","267.9098","92.1752","0","999","3608","0.000070852","0.00000753","0","4064456","0 STARLINK-5928","1 55958U 23037AW  23305.29373718  .00000753  00000-0  70852-4 0  9991","2 55958  70.0000 271.3071 0002704 267.9098  92.1752 14.98334690 36086","2023-037AW","55958","6950.178","96.107","573.923","570.164","0"
"GENERATED VIA SPACETRACK.ORG API","18 SPCS","55958","STARLINK-5928","PAYLOAD","U","23037AW","2023-11-01 07:02:58","892352","14.9833469","0.0002704","70","271.3071","267.9098","92.1752","0","999","3574","0.000070852","0.00000753","0","4064888","0 STARLINK-5928","1 55958U 23037AW  23305.29373718  .00000753  00000-0  70852-4 0  9991","2 55958  70.0000 271.3071 0002704 267.9098  92.1752 14.98334690 35748","2023-037AW","55958","6950.178","96.107","573.923","570.164","0"
"GENERATED VIA SPACETRACK.ORG API","18 SPCS","55955","STARLINK-5878","PAYLOAD","U","23037AT","2023-11-01 07:08:59","668512","14.98333407","0.0002953","70","271.321","271.1173","88.9648","0","999","3608","0.000079869","0.0000086","0","4064534","0 STARLINK-5878","1 55955U 23037AT  23305.29791283  .00000860  00000-0  79869-4 0  9995","2 55955  70.0000 271.3210 0002953 271.1173  88.9648 14.98333407 36087","2023-037AT","55955","6950.182","96.107","574.100","569.995","0"
"GENERATED VIA SPACETRACK.ORG API","18 SPCS","55955","STARLINK-5878","PAYLOAD","U","23037AT","2023-11-01 07:08:59","668512","14.98333407","0.0002953","70","271.321","271.1173","88.9648","0","999","3574","0.000079869","0.0000086","0","4064888","0 STARLINK-5878","1 55955U 23037AT  23305.29791283  .00000860  00000-0  79869-4 0  9995","2 55955  70.0000 271.3210 0002953 271.1173  88.9648 14.98333407 35749","2023-037AT","55955","6950.182","96.107","574.100","569.995","0"
"GENERATED VIA SPACETRACK.ORG API","18 SPCS","56449","STARLINK-5993","PAYLOAD","U","23064B","2023-11-01 07:19:02","592768","14.98301174","0.0002907","70","151.4721","290.3565","69.7282","0","999","2687","0.0004899","0.00005753","0","4064570","0 STARLINK-5993","1 56449U 23064B   23305.30489112  .00005753  00000-0  48990-3 0  9997","2 56449  70.0000 151.4721 0002907 290.3565  69.7282 14.98301174 26871","2023-064B","56449","6950.282","96.109","574.167","570.127","0"
